{
  "norad_id": 60290,
  "name": "STARLINK-32141",
  "history": [
    {
      "epoch": "2026-04-12T14:31:46.108128Z",
      "apogee_km": 475.93199157528124,
      "perigee_km": 474.56926397937514,
      "latitude_deg": -2.583786425690169e-05,
      "longitude_deg": -163.89896485644272,
      "height_km": 476.2876608676148,
      "semi_major_axis_km": 6853.387627777328,
      "eccentricity": 9.942e-05,
      "inclination_deg": 53.1614,
      "raan_deg": 254.8513,
      "arg_perigee_deg": 101.7205,
      "mean_anomaly_deg": 258.3907,
      "mean_motion_rev_day": 15.30188091
    },
    {
      "epoch": "2026-04-14T15:07:25.302144Z",
      "apogee_km": 476.0006412541552,
      "perigee_km": 474.42848240587136,
      "latitude_deg": 5.245362570376212e-06,
      "longitude_deg": 175.78885751494047,
      "height_km": 476.1618598252074,
      "semi_major_axis_km": 6853.351561830013,
      "eccentricity": 0.0001147,
      "inclination_deg": 53.1615,
      "raan_deg": 245.4481,
      "arg_perigee_deg": 93.566,
      "mean_anomaly_deg": 266.5472,
      "mean_motion_rev_day": 15.3020017
    },
    {
      "epoch": "2026-04-15T16:12:16.955136Z",
      "apogee_km": 476.0461118371459,
      "perigee_km": 474.5013530580518,
      "latitude_deg": 3.128192260098483e-05,
      "longitude_deg": 153.68821734912868,
      "height_km": 476.22144124347346,
      "semi_major_axis_km": 6853.410732447598,
      "eccentricity": 0.0001127,
      "inclination_deg": 53.1605,
      "raan_deg": 240.5927,
      "arg_perigee_deg": 93.6667,
      "mean_anomaly_deg": 266.4463,
      "mean_motion_rev_day": 15.30180353
    },
    {
      "epoch": "2026-04-16T15:43:04.307808Z",
      "apogee_km": 475.8987671956147,
      "perigee_km": 474.4993159759224,
      "latitude_deg": 2.024983016255188e-05,
      "longitude_deg": 155.47505731648027,
      "height_km": 476.0084703689542,
      "semi_major_axis_km": 6853.336041585768,
      "eccentricity": 0.0001021,
      "inclination_deg": 53.1601,
      "raan_deg": 236.0425,
      "arg_perigee_deg": 82.6921,
      "mean_anomaly_deg": 277.4196,
      "mean_motion_rev_day": 15.30205368
    },
    {
      "epoch": "2026-04-17T15:13:52.605696Z",
      "apogee_km": 475.8814827203669,
      "perigee_km": 474.6092208205828,
      "latitude_deg": -1.260055954058089e-05,
      "longitude_deg": 157.2568313432355,
      "height_km": 475.9356367881374,
      "semi_major_axis_km": 6853.382351770474,
      "eccentricity": 9.282e-05,
      "inclination_deg": 53.1593,
      "raan_deg": 231.4912,
      "arg_perigee_deg": 70.8913,
      "mean_anomaly_deg": 289.2188,
      "mean_motion_rev_day": 15.30189858
    },
    {
      "epoch": "2026-04-18T14:44:39.545376Z",
      "apogee_km": 475.84677240648307,
      "perigee_km": 474.5775321434803,
      "latitude_deg": 6.763621334408892e-05,
      "longitude_deg": 159.04416335276014,
      "height_km": 476.04114778869643,
      "semi_major_axis_km": 6853.349152274981,
      "eccentricity": 9.26e-05,
      "inclination_deg": 53.1586,
      "raan_deg": 226.9397,
      "arg_perigee_deg": 83.7225,
      "mean_anomaly_deg": 276.3882,
      "mean_motion_rev_day": 15.30200977
    },
    {
      "epoch": "2026-04-19T14:15:28.188000Z",
      "apogee_km": 476.1576910061267,
      "perigee_km": 474.3840290519511,
      "latitude_deg": -7.822533572810338e-07,
      "longitude_deg": 160.8278684075032,
      "height_km": 476.1639578244597,
      "semi_major_axis_km": 6853.407860029039,
      "eccentricity": 0.0001294,
      "inclination_deg": 53.1615,
      "raan_deg": 222.3918,
      "arg_perigee_deg": 89.6706,
      "mean_anomaly_deg": 270.4443,
      "mean_motion_rev_day": 15.30181315
    },
    {
      "epoch": "2026-04-20T13:46:16.420224Z",
      "apogee_km": 476.20359911263677,
      "perigee_km": 474.3183663955406,
      "latitude_deg": -2.3845452780993108e-05,
      "longitude_deg": 162.60892090978737,
      "height_km": 476.1385936320281,
      "semi_major_axis_km": 6853.397982754088,
      "eccentricity": 0.00013754,
      "inclination_deg": 53.1612,
      "raan_deg": 217.8395,
      "arg_perigee_deg": 88.7571,
      "mean_anomaly_deg": 271.3587,
      "mean_motion_rev_day": 15.30184623
    }
  ]
}